IRIDIUM 7 [-]           
1 24793U 97020B   23247.99642505  .00000340  00000+0  11278-3 0  9999
2 24793  86.3906  89.6560 0002314  89.9428 270.2033 14.34878606378487
IRIDIUM 5 [-]           
1 24795U 97020D   23248.51115978  .00002717  00000+0  27695-3 0  9999
2 24795  86.3985  20.9424 0127403 295.0207  63.7831 14.84364626388642
IRIDIUM 4 [-]           
1 24796U 97020E   23247.83682703  .00000395  00000+0  12973-3 0  9992
2 24796  86.3902  87.0311 0002103  92.5853 267.5584 14.35783137378979
IRIDIUM 16 [-]          
1 24841U 97030F   23248.04640559  .00000435  00000+0  13900-3 0  9997
2 24841  86.4022 118.6989 0003972  64.2944 295.8664 14.37476135373425
IRIDIUM 911 [-]         
1 24842U 97030G   23248.07700103  .00000555  00000+0  15009-3 0  9998
2 24842  86.4446 118.0473 0016452 103.9649 256.3385 14.45981105380942
IRIDIUM 920 [-]         
1 24871U 97034C   23248.09664957  .00000466  00000+0  14070-3 0  9990
2 24871  86.3986 129.0988 0013730  71.0923 289.1763 14.40292382372820
